MOLNIYA 2-9             
1 07276U 74026A   22230.00997276  .00000133  00000+0  00000+0 0  9995
2 07276  64.2814 218.5623 6456890 280.5881  17.3048  2.45097685250899
MOLNIYA 2-10            
1 07376U 74056A   22226.07430221 -.00001137  00000+0  00000+0 0  9999
2 07376  64.1965  88.8387 6736913 286.2740  13.6160  2.01155249351546
MOLNIYA 1-S             
1 07392U 74060A   22228.72779231 -.00000033  00000+0  00000+0 0  9997
2 07392   4.9684 282.0335 0011873 210.7337 164.3115  1.00199370120138
MOLNIYA 1-29            
1 07780U 75036A   22228.99159180  .00000070  00000+0 -50360-1 0  9993
2 07780  63.4173 208.4716 6889874 288.6616  11.9680  2.00628646346836
MOLNIYA 2-14            
1 08195U 75081A   22230.03797415  .00001229  00000+0  00000+0 0  9991
2 08195  63.3865 181.3604 6793467 292.8784  11.4780  2.02082836344183
MOLNIYA 1-32            
1 08601U 76006A   22228.51335126 -.00000775  00000+0  12471-1 0  9991
2 08601  63.4825 289.2352 7243846 283.8064  11.2396  2.00084495 53867
MOLNIYA 1-36            
1 09880U 77021A   22229.15699525  .00000372  00000+0  00000+0 0  9991
2 09880  63.4884 260.5878 7170528 289.6844  10.2343  2.00904789230587
MOLNIYA 3-8             
1 10455U 77105A   22229.36814989 -.00000453  00000+0  46612-3 0  9994
2 10455  63.3911 348.6020 7369311 282.2592  10.8627  2.00845193328361
MOLNIYA 1-40            
1 10925U 78055A   22228.55113703  .00000413  00000+0  00000+0 0  9999
2 10925  63.3644  39.6232 7262856 280.6727  11.8048  2.00704161323885
MOLNIYA 3-10            
1 11057U 78095A   22229.34263819 -.00000110  00000+0 -90333-4 0  9991
2 11057  63.1754  16.8147 5792066 310.7786  11.7371  4.09853542386227
MOLNIYA 3-13            
1 11896U 80063A   22229.77942997  .00000327  00000+0  00000+0 0  9993
2 11896  62.6993 129.6459 7104079 276.3448  14.0796  2.00657940308371
MOLNIYA 1-49            
1 12156U 81009A   22227.99112288  .00000944  00000+0 -11927-2 0  9997
2 12156  61.6982 156.5244 7270330 263.1329  17.2501  2.05700056222719
MOLNIYA 1-52            
1 13012U 81123A   22228.62337565 -.00000583  00000+0 -98685-2 0  9990
2 13012  61.7356 270.1454 7239941 255.5812  20.8125  2.00400318297782
MOLNIYA 1-53            
1 13070U 82015A   22229.40432458 -.00001084  00000+0 -96861-2 0  9990
2 13070  62.6345 206.6812 7033537 282.8235  12.6360  2.00778876296473
MOLNIYA 3-20            
1 13875U 83015A   22227.41689499  .00001273  00000+0  26576-2 0  9996
2 13875  62.7088 343.4575 7401934 258.5719  17.9832  2.00470034224933
MOLNIYA 1-56            
1 13890U 83019A   22228.70756740 -.00000800  00000+0  55216-3 0  9994
2 13890  62.9922   8.4690 7449165 264.5670  15.2663  1.99981436287815
MOLNIYA 1-63            
1 15429U 84124A   22228.28522855  .00001055  00000+0  00000+0 0  9992
2 15429  63.7507 162.0943 6642282 259.3398 273.6378  2.00801913275953
MOLNIYA 3-24            
1 15738U 85040A   22227.62219785 -.00000112  00000+0  00000+0 0  9999
2 15738  63.6674  71.7726 6815920 247.2836  30.6854  2.55627292305386
MOLNIYA 3-27            
1 16393U 85117A   22228.02026364 -.00000144  00000+0  00000+0 0  9991
2 16393  64.3941  73.7774 6991497 248.1258  27.9516  2.12396991275445
MOLNIYA 1-69            
1 17078U 86089A   22228.17960592  .00000061  00000+0  00000+0 0  9994
2 17078  63.9917 180.9392 6648750 257.7757  25.8502  2.00679487262025
MOLNIYA 3-31            
1 17328U 87008A   22227.77652453  .00000443  00000+0  00000+0 0  9997
2 17328  63.6950 121.6998 7047909 253.7921  23.8173  2.00604130257052
MOLNIYA 1-71            
1 18946U 88017A   22228.71854869 -.00000237  00000+0  00000+0 0  9997
2 18946  63.4097 115.6105 7161868 256.4280  21.2305  2.00648710252260
MOLNIYA 1-75            
1 19807U 89014A   22228.93324562  .00000061  00000+0  00000+0 0  9992
2 19807  64.0519 277.9663 6850971 266.8013  19.5131  2.00582280245215
MOLNIYA 1-80            
1 21118U 91012A   22226.12233434  .00000353  00000+0  00000+0 0  9991
2 21118  65.1923 326.6439 6787836 276.9056  16.3458  2.05232665232166
MOLNIYA 3-40            
1 21196U 91022A   22229.41857964  .00000896  00000+0  00000+0 0  9995
2 21196  65.1089 319.8950 6816957 273.6577  17.2221  2.03010037230921
MOLNIYA 1-81            
1 21426U 91043A   22229.34600348 -.00000044  00000+0  00000+0 0  9994
2 21426  64.1086 336.3278 7097114 266.6814  17.5041  2.00633857228381
MOLNIYA 3-41            
1 21706U 91065A   22229.57165099  .00001154  00000+0  00000+0 0  9995
2 21706  64.1001 159.4211 6846890 255.3569  25.1229  2.04341253228174
MOLNIYA 3-42            
1 22178U 92067A   22225.95593307  .00000163  00000+0  00000+0 0  9996
2 22178  64.6764 209.8825 6427297 266.1649  23.5979  2.20435680 81329
MOLNIYA 1-86            
1 22671U 93035A   22230.19626941  .00000448  00000+0  55207-3 0  9992
2 22671  63.0878 201.0567 4860620   8.0012 357.5522  5.62688664355722
MOLNIYA 1-87            
1 22949U 93079A   22226.71927607  .00000341  00000+0  00000+0 0  9993
2 22949  63.9901  85.6026 6879387 284.0783  13.3286  2.02877018 76116
MOLNIYA 1-88            
1 23420U 94081A   22229.18267032  .00000088  00000+0  00000+0 0  9993
2 23420  64.2795 182.3030 5802093 281.9657  21.7020  3.34498036115737
MOLNIYA 3-47            
1 23642U 95042A   22228.68301215  .00000823  00000+0  00000+0 0  9990
2 23642  64.1110  67.1486 6930476 284.3299  12.9250  2.01967102198236
MOLNIYA 1-90            
1 24960U 97054A   22228.96790403  .00000028  00000+0 -50720-2 0  9996
2 24960  63.6404 148.9363 6112117 298.3242  13.8035  3.18689082209937
MOLNIYA 1-91            
1 25485U 98054A   22229.27471091  .00000136  00000+0  22925-2 0  9999
2 25485  63.0290 140.7357 6774044 291.8935 337.6150  2.36444554179810
MOLNIYA 3-50            
1 25847U 99036A   22229.82302501  .00000159  00000+0 -80983-4 0  9998
2 25847  63.2086 324.9165 7378183 282.0957  10.8640  2.00655353169344
